STARLINK-1434           
1 45712U 20035BH  26068.24137979  .00054112  00000+0  20295-2 0  9995
2 45712  53.0547  22.1128 0005343  88.0400 272.1210 15.26724568319325
STARLINK-36490          
1 67305U 26002A   26068.04462430  .00030425  00000+0  11109-2 0  9993
2 67305  43.0048 328.6178 0002224 263.5738  96.4861 15.27570065 11049
